ORBCOMM FM115           
1 41186U 15081H   24149.14662047  .00001182  00000+0  27498-3 0  9999
2 41186  46.9996  68.4190 0000095  83.3506 276.7391 14.60751385451445
ORBCOMM FM108           
1 41187U 15081J   24148.35120853  .00001338  00000+0  33424-3 0  9995
2 41187  47.0029 127.0229 0003303 325.7746  34.2925 14.56661053450518
ORBCOMM FM117           
1 41188U 15081K   24148.66030534  .00000540  00000+0  15726-3 0  9995
2 41188  46.9999 124.4576 0003596 340.2332  19.8413 14.56617242450608
ORBCOMM FM116           
1 41189U 15081L   24148.30608415  .00001153  00000+0  29294-3 0  9992
2 41189  46.9997 215.9436 0000882  80.0152 280.0833 14.56687122449365
